{
 "type": "FeatureCollection",
 "features": [
  {
   "type": "Feature",
   "id": 2520244132,
   "geometry": {
    "type": "Point",
    "coordinates": [
     33.939115,
     35.121439
    ]
   },
   "properties": {
    "marker-symbol": "trail",
    "image": {
     "id": "u490sfifri7si4gk",
     "w": 1500,
     "h": 1000,
     "tip_color": "#ecdbb1",
     "avg_color": "#7f8485",
     "caption": null
    },
    "title": "Ravelin(Akkule)/Rivettina Tabyası",
    "description": "Direction\nhttps://goo.gl/maps/jNh1PSNQcRQdDqgf9\n\nVisitors to the old walled city of Famagusta today can walk over vast sections of the fortification and get a real sense of the sheer bulk of its defences.\n\nWhen the Venetians took control over Cyprus in 1489 from the French Lusignans, the city walls in Famagusta were tall and slim, designed for defence against light enemy sieges at the time.\n\nHowever, warfare methods were improving and with the introduction of heavy artillery, the Venetians were more than aware that they had to remodel and strengthen these walls, especially against the possible threat posed by the Ottomans and their hefty cannons.\n\nIn 1492 they hence began fortifying the walls, and experts were brought in from Venice to oversee the renovations that lasted over 70 years. Certain models of this fortification were actually inspired by the great Michelangelo, Italian sculptor and architect of the High Renaissance\n\nSeaward walls were constructed totalling a length of three kilometres and up to eighteen metres in height, and the Martinengo Bastionas well as the Land Gate, later known as the Rivettina Bastion were redesigned at great cost.\n\nThe two gated entrances into the wall were indeed the Land Gate and the Sea Gate or Porta del Mare. Any tour of the Famagusta Walls tends to start at the southern end near the Rivettina Bastion.\n\nIt is the second oldest part of the walls after Othello’s Tower and certainly one of the most intriguing areas for those interested in military fortifications.\n\nOver the centuries it has been also been called the Ravelin and the Akkule, depending on the empires ruling Famagusta at the time.\n\nOriginally named the Ravelin, it was the Lusignans that built this tower outside the walls of Famagusta, as protection of the main entry to the city – the old French name given reflecting its half-moon or demi-lune shape.\n\nWhen the Venetians came to power and fortifications commenced, they built new walls in which the Ravelin was incorporated into. It was renamed the Rivettina Bastion and became part of a colossal defensive structure, bristling with cannon emplacements and connected by a series of passages and chambers.\n\nThe outer edges of such a fortification were configured to divide any assault force, and guns within could fire at any attacking troops as they approached the curtain wall.\n\nThe threat from the Ottomans proved not to be an idle one and in 1570-71, the Venetians in Famagusta found themselves under siege. Although the walls were never breached, the Venetians surrendered after a long ten months.\n\nWhen the latter took possession of Famagusta and the Rivettina Bastion, it was renamed the Akkule, or white tower, supposedly from the colour of the flag the Venetians hoisted in surrendering the fort.\n\nThe entrance to the walled city continued through Akkule, over a drawbridge that the Ottomans erected, protected by a portcullis and evidence of which still remains today.\n\nEntering through this gate, visitors will first admire the frescoes and coats of arms dating to the Venetian era. As you walk past the Akkule mosque built by the Ottomans in 1619, stairs will lead you to the top of the walls, from where you can walk across the Arsenal and continue until you reach the original Sea Gate, Porta del Mare.\n\nWander through the maze of passages and contemplate the civilisations and sieges that have come and gone over centuries past.\n\n...\n\nAkkule, Gazimağusa'nın orjinal  iki ana giriş kapısından biridir. Asma köprü, Kraliyet arması, fresk ve zindan olarak kullanılan yeraltı odaları bulunan yapının tamamı ziyarete açık ve  oldukça tercih edilen bir yerdir. Gazimağusa Surları,  Lüzinyan döneminde inşa edilmiş ancak top saldırılarına karşı zayıf olduğu görülmüştür. Bu nedenle, Osmanlı ordusuna karşı önlem olarak, Nicolao Foscarini ve Nicola Priluli tarafından 1492 ve 1496 yıllarında  surların denize bakan bölümü güçlendirilerek tekrar inşa edilmiştir. Venedik’ten 1550’li yıllarda getirilen Giovanni Girolamo Sanmichele ve diğer mühendisler tarafından  surlar tekrar yenilenmiş ve güçlendirilmiş  ayrıca koruma amacıyla surların dışına 46 metre genişliğinde bir hendek kazılmıştır. Günümüzde,  üç kilometre uzunluğunda olan şehir surlarında, 15 tabya , birçok kapı, rampalar, dar erişim yolları, mazgallar, mühimmat depoları, diğer depolar ve ahırlar bulunmaktadır.\n\nFor more info / Daha fazlası için;\nhttps://www.visitncy.com/tr/kesfet/rivettina-tabyasi/",
    "url": "https://www.visitncy.com/tr/kesfet/rivettina-tabyasi/"
   }
  },
  {
   "type": "Feature",
   "id": 3541002756,
   "geometry": {
    "type": "Point",
    "coordinates": [
     33.940576,
     35.124004
    ]
   },
   "properties": {
    "marker-symbol": "trail",
    "image": {
     "id": "f78mgmxxab1bjar1",
     "w": 1500,
     "h": 1000,
     "tip_color": "#a38550",
     "avg_color": "#7d847c",
     "caption": null
    },
    "title": "St. Peter & St. Paul Church (Kilisesi) - Sinan Pasha Mosque (Camii)",
    "description": "Direction\nhttps://goo.gl/maps/idL11nN1fbRwMyZ86\n\nThe magnificent facade of this mammoth 14th-century church provides a great notion of what Famagusta would have looked like before most of its churches and monuments were ruined.\n\nBehind the Venetian Palace in the town centre, you will find the glorious flying buttresses of the renamed Ottoman Sinan Pasha Mosque.\n\nThe foundations of one of the largest Gothic cathedrals in Famagusta, the initial church of Saint Peter and Saint Paul were laid in the Lusignan reign of Peter I, 1358 – 1369, and funded by one third of the profits made on a single trip to Syria by a wealthy merchant of Famagusta, Simon Nostrano.\n\nThe church walls are supported by heavy flying buttresses, in place to drain the pressure away from the interior vaulting, but only on the upper level. They, like the wall itself, are enormously thick and sturdy, presumably to resist the disastrous effects of earthquakes. The later substantial buttressing added on the south side dates to after the two sixteenth century earthquakes which threatened the structure in its entirety.\n\nAs a result of these modifications, the church does not have the same radiance from its more delicately constructed French contemporary counterparts. Indeed, George H. Everett Jeffery who was the Curator of Ancient Monuments in Cyprus in the early 20th century summarises its appearance – “Nothing could be uglier or more opposed to the beauty of true Gothic architecture than the exterior of this immense church.”\n\nThe beauty of this church rests almost entirely in its refined and elegant interior perspective.\n\nGothic arches rise above the rhythmic succession of bays, from plain circular piers with undecorated capitals. From the abacus of each pier are three colonettes, merged into the wall, which rising to the clerestory level, fan out to cover the nave and create the cross vaulted ceiling, which gather at roof bosses of floral design and which often bear coats of arms.\n\nRemnants of Gothic sculpture, unidentified renaissance martyrdoms, post-Renaissance maritime graffiti, all offer tantalising fragments and a rare insight into a now forgotten period of wealth and influence in the history of Famagusta.\n\nThe building became disused during the Venetian period, as it escaped the attention of the Ottoman bombardment of the city in 1571. After their conquest, the Ottomans added a minaret to the south west corner and renamed the edifice Sinan Pasha Mosque, after “Sinan the Great” who served five times as Grand Vizier in the Ottoman empire.\n\nDuring the British era of the island, the mosque was used as a potato and grain store and so is also locally referred to as the “Bugday Cami” (wheat mosque).\n\nIn the southern courtyard, underneath the second row of buttresses, you will find the grave of Yirmisekiz Celebi. Mehmed Efendi, was an Ottoman statesman who was delegated as ambassador by the Sultan Ahmed III to Louis XV’s France in 1720. he became to be known by the nickname Yirmisekiz (“twenty-eight” in Turkish) for his entire life, since he had served in the 28th battalion of the first modern standing army in Europe. He died in exile at Famagusta in 1732.\n\n...\n\nBu Gotik yapı, 1358-1369 yılları arasında ünlü tüccar Simon Nostranto’nun Suriye'ye yaptığı bir seyahatte kazandığı parayla inşa edilmiş ve Osmanlı döneminde camiye dönüştürülerek, ismi Sinan Paşa Camii olarak değiştirilmiştir. Bina İngiliz Sömürge döneminde buğday deposu olarak kullanıldığından, Buğday Camii olarak da anılmaktadır. \n\nFor more info / Daha fazlası için;\nhttps://www.visitncy.com/tr/kesfet/sinan-pasa-camii/",
    "url": "https://www.visitncy.com/tr/kesfet/sinan-pasa-camii/"
   }
  },
  {
   "type": "Feature",
   "id": 280998293,
   "geometry": {
    "type": "Point",
    "coordinates": [
     33.941982,
     35.124965
    ]
   },
   "properties": {
    "marker-symbol": "trail",
    "image": {
     "id": "sgo8ctso7tpef3ns",
     "w": 1500,
     "h": 1000,
     "tip_color": "#e7ddc8",
     "avg_color": "#636556",
     "caption": null
    },
    "title": "Namık Kemal Dungeon/Zindanı",
    "description": "Direction\nhttps://goo.gl/maps/J1kyg2b2Q5VsKbwW8\n\nA historical building in Famagusta, it is known for being the temporary abode of the influential Turkish writer Namik Kemal.\n\nKnown as the Shakespeare of Turkish literature, Kemal spent 38 months of his life in this building, between 1873 and 1876.\n\nSeen as a potential revolutionary and a threat, Kemal was sent into exile by the Sultan Abdulaziz on 9 April 1873 soon after the first performance of his play ‘Vatan yahut Silistre’ (Fatherland or Silistria) a drama centred on the Siege of Silistria, at Gedik Pasha Theatre in Constantinople, modern day Istanbul. The play was considered dangerous by the Ottoman government as it promoted nationalism and liberalism.\n\nThe site of the building Kemal was exiled to was originally part of the Venetian Palazzo del Proveditore however the gaol building as it currently stands was built during the Ottoman era in a corner of the ruined palace.\n\nThe building has two contrasting floors – its lower floor displays pre-Ottoman Lusignan architecture whereas the upper floor is distinctly Ottoman in style. The building is in an L-shape and whilst the lower floor is made of ashlar stone, the upper floor was built using lath and plaster.\n\nThe ground floor, with only one vaulted cell is rectangular shaped and has a low arched entrance door and barred window which opens on to the courtyard of the Venetian Palace. Although described as a dungeon, it is not underground.\n\nWhen Namik Kemal came to Famagusta, he first stayed at the ground floor. Extensive notes found described his initial cell as too dark and a place unsuitable for living – the room was indeed just over ten squares metres and devoid of furnishings.\n\nSometime after, he was transferred to the floor above with the permission of the Cyprus Governor, Veysi Pasha. Steep stone stairs at the side of the building lead to this storey which has two large windows, a landing at the front and marbled flooring. \n\nWhen Abdulaziz was dethroned, Namik Kemal was pardoned by Murad V and returned to Constantinople on 29 June 1876. Namik Kemal had penned his plays ‘Gulnihal’ and ‘Akif Bey’ in the Famagusta dungeon. \n\nRestoration of the dungeon in the nineties has allowed its use as a museum, which holds many of his belongings and documents relating to the late distinguished writer.\n\nThe same dungeon was also reportedly used by the British authorities during the First World War.\n\nA bronze bust of Namik Kemal faces the square named after him, across from the dungeon. As references made by the founder of the Republic of Turkey, Mustafa Kemal Ataturk, to Namik Kemal’s works as a major source of inspiration, the writer today still enjoys the status of a literary hero for many in Turkey and North Cyprus alike.\n\n...\n\nNamık Kemal Zindanı, Venedik Sarayı’nın içinde iki katlı bir binadır. Yapı, şair Namık Kemal'in Osmanlı sarayından, Kıbrıs'a sürgüne gönderildiği sırada kaldığı yer olması nedeniyle Namık Kemal Zindanı olarak bilinmektedir. Şair, 5 Nisan 1873'te Kıbrıs'a sürgün edilip, 3 Haziran 1876'da V. Sultan Murat tarafından affedilene kadar 38 ay burada kalmıştır.  \n\nFor more info / Daha fazlası için;\nhttps://www.visitncy.com/tr/kesfet/namik-kemal-zindani/",
    "url": "https://www.visitncy.com/tr/kesfet/namik-kemal-zindani/"
   }
  },
  {
   "type": "Feature",
   "id": 469828984,
   "geometry": {
    "type": "Point",
    "coordinates": [
     33.940453,
     35.124418
    ]
   },
   "properties": {
    "marker-symbol": "trail",
    "image": {
     "id": "s3s70zltw1iuppju",
     "w": 1500,
     "h": 1000,
     "tip_color": "#e5ddd1",
     "avg_color": "#869194",
     "caption": null
    },
    "title": "Venetian Royal Palace/Venedik Sarayı",
    "description": "Direction\nhttps://goo.gl/maps/mSdJKK99y4zJiNhAA\n\nPalazzo del Proveditore, commonly known as the Venetian Palace, was a royal palace in Famagusta, originally built by the Lusignan Kings of Cyprus.\n\nLocated at the western end of the Namik Kemal Square, across from the St. Nicholas Cathedral, Lusignan kings used Famagusta as their second place of residence, in addition to Nicosia.\n\nThe exact year when the palace was first built is uncertain though the Genoese Notary Lamberto di Sambuceto who used the term “domini regis Cipri”(palace of the King of Cyprus) to refer to the building, indicates the years 1300 – 1302.\n\nIt was used as living accommodation until the reign of Peter II in 1369 when it was partially destroyed by earthquakes – the central sections of the palace completely demolished, only its grand façade and back courtyard walls remained from the tremors.\n\nHowever, under the rule of the Venetians, they immediately began converting the city from French medieval to an Italian renaissance form. They moved the capital of Cyprus from Nicosia to Famagusta, and they greatly renovated the palace ruins in 1552 – 1554, transforming the Gothic style features and replacing them with Italian Renaissance architecture. \n\nUpon completion, the new palace was used as the residence of the Venetian Military Governor – the Proveditore. The palace was an immense building that stood to remind the population of Famagusta of the power and influence of their Venetian governors. The door to the palace opened up onto what was once the largest central square in all of Europe.\n\nThe final inhabitant of the Palazzo del Proveditore in 1569 was the appointed Captain General of Famagusta, Marco Antonio Bragadin, who led the Venetian resistance to the Ottoman conquest that began in 1570. He was famously killed in August 1571, enduring a slow death starting with the carving of his ears after the Ottomans took the city – the fall of which signalled the end of Western presence in the Mediterranean island for the next three centuries.\n\nDuring the Ottoman rule, structures of the palace were used as military barracks, a prison and as a site for military drills and under British rule, the building was used for similar policing purposes.\n\nAmongst the Ottoman prisoners was Namik Kemal, the Shakespeare of the Turkish literature, who was held here between 1873 and 1876, having been exiled to Cyprus after criticising the Ottoman Sultan Abdulaziz.\n\nThere is a bronze bust of the novelist facing the square named after him, by the Lala Mustafa Pasha Mosque across from the Palazzo.\n\nIn mid-20th century, the remaining structures from the palace were evacuated and parts were moved into the Namik Kemal Dungeon Museum, displaying the late distinguished writer’s life and his works.\n\n...\n\nXIII. Yüzyılda Lüzinyan döneminde Gotik tasarımlı Kraliyet Sarayı olarak inşa edilmiş daha sonra Cenevizliler tarafından yıkılmış ve M.S. XV. yüzyılda Provaditore'nin (Venedik Mareşali) konutu olarak yeniden inşa edilmiştir. Namık Kemal Meydanı'nın batı ucunda bulunan üç kemerli giriş 16. yüzyılda inşa edilmiştir. Orta kemerin kilit taşında Giovanni Renier'in 1552 yılına dayanan amblemi bulunmaktadır. Sarayın kuzeybatısında İngiliz Sömürge döneminde Gazimağusa Müzesi olarak kullanılan 15. yüzyıldan kalma bir ortaçağ kilisesi bulunmaktadır.  \n\nFor more info / Daha fazlası için;\nhttps://www.visitncy.com/tr/kesfet/venedik-sarayi/",
    "url": "https://www.visitncy.com/tr/kesfet/venedik-sarayi/"
   }
  },
  {
   "type": "Feature",
   "id": 530857738,
   "geometry": {
    "type": "Point",
    "coordinates": [
     33.942686,
     35.124875
    ]
   },
   "properties": {
    "marker-symbol": "trail",
    "image": {
     "id": "ktgrut6xljtdmyk5",
     "w": 1500,
     "h": 844,
     "tip_color": "#57411f",
     "avg_color": "#828a7e",
     "caption": null
    },
    "title": "Lala Mustafa Pasha Mosque/Camii (St. Nicholas Cathedral/Katedrali)",
    "description": "Direction\nhttps://goo.gl/maps/cT3i9vZXsR2ghpM59\n\nThe Lala Mustafa Pasha Mosque originally known as the Latin Cathedral of Saint Nicholas and later as the Saint Sophia (Ayasofya) Mosque of Famagusta, is the largest medieval building in Famagusta and one of the most impressive Frankish buildings still to survive in the Near East.\n\nThe most impressive edifice in Famagusta if not the whole island, this beautiful gothic Catholic Cathedral was built during the Lusignan period and dedicated to St. Nicholas.\n\n...\n\n1298-1312 yılları arasında inşa edilen katedral, Akdeniz'in en güzel yapılarından biri olarak bilinmektedir. Lüzinyan kralları Lefkoşa'daki St. Sofya Katedrali'nde Kıbrıs kralı olarak taç giymelerinin ardından, bu katedralde Kudüs ve Ermenistan krallık taçlarını  giymekteydi. Katedral, Osmanlı döneminde camiye dönüştürülmüştür. \n\nFor more info / Daha fazlası için;\nhttps://www.visitncy.com/tr/kesfet/lala-mustafa-pasa-camii/",
    "url": "https://www.visitncy.com/tr/kesfet/lala-mustafa-pasa-camii/"
   }
  },
  {
   "type": "Feature",
   "id": 1388493185,
   "geometry": {
    "type": "Point",
    "coordinates": [
     33.940961,
     35.124846
    ]
   },
   "properties": {
    "marker-symbol": "trail",
    "image": {
     "id": "ccejffsr3wospabi",
     "w": 1500,
     "h": 1000,
     "tip_color": "#141615",
     "avg_color": "#648291",
     "caption": null
    },
    "title": "St. Francis Church/Kilisesi",
    "description": "Direction\nhttps://goo.gl/maps/5Eo4vRF1xDhwSQJ17\n\n\n\nBu bina 13. yüzyılda Kıbrıs'a gelen Fransisken tarikatının Gazimağusa'daki en önemli kilisesidir. Kilisenin bir parçası olan manastır ne yazık günümüze kadar ulaşamamıştır. Toprak ağaları ve Roma dilencileri gibi üyeleri olan Fransisken tarikatı, 1400’lü yıllarda adaya gelen büyük tarikatlardan biri haline gelmiştir. Tarihçilere göre kilisenin yapım masrafları, Fransisken Rahipleri ile yakın ilişkiler içinde olan Kıbrıs Kralı II. Henry (1285-1324) tarafından karşılanmıştır. Fransisken Kilisesi 13. yüzyılın sonlarında ve 14. yüzyılın başlarında inşa edilmiştir. O dönemlerde kilise için mali destek sağlayan Gazimağusalılar, Cenevizliler ve diğer kişiler kiliseye gömülmüşlerdir.\n\nFor more info / Daha fazlası için;\nhttps://www.visitncy.com/tr/kesfet/st-francis-kilisesi/",
    "url": "https://www.visitncy.com/tr/kesfet/st-francis-kilisesi/"
   }
  },
  {
   "type": "Feature",
   "id": 2321779993,
   "geometry": {
    "type": "Point",
    "coordinates": [
     33.941119,
     35.125015
    ]
   },
   "properties": {
    "marker-symbol": "trail",
    "image": {
     "id": "iywjfgpaxzbohcsu",
     "w": 1500,
     "h": 1000,
     "tip_color": "#c9b387",
     "avg_color": "#6e6d61",
     "caption": null
    },
    "title": "Cafer Pasha Bath / Fountain/Cafer Paşa Hamamı ve Çeşmesi",
    "description": "Direction\nhttps://goo.gl/maps/i8rEaEVZu441jcQUA\n\nThe main square, currently known as the Namik Kemal Square, was the busiest part of the city in the Ottoman period, as indeed it was in the Latin period.\n\nThe most important mosque in Famagusta, the Lala Mustafa Pasha, along with the historic medrese and the Cafer Pasha Fountain and Hammam (bath), comprised the buildings that surrounded this square.\n\nThe preserved marble fountain can be seen to the right of the entrance to the Venetian Palace, built in 1597 and named after a distinguished Ottoman general.\n\nAcross from the fountain is the Cafer Pasha Bath. Although the bath dates to 1605, the dressing rooms are much older, originally a part of the early 14th century St. Francis Church. The remainder of the baths, however, reflect the style of a typically Ottoman Turkish bath, with domed hot and cold rooms.\n\n...\n\nCafer Paşa Hamamı, Lüzinyan döneminde kullanılan Francis Kilisesi'nin avlusundaki atıklar kullanılarak Cafer Paşa tarafından inşa edilmiş olup, tüm Osmanlı hamamlarında olduğu gibi antre, giyinme alanı, ısı odası ve kazan dairesi olmak üzere birçok bölümden oluşmaktadır. Binanın soğuk ve sıcak hamam bölümleri plan ve mimari olarak tipik bir Osmanlı tarzında tasarlanmış; ancak giyinme alanı St. Francis Kilisesi'ndeki halinden dönüştürülmüştür. \nCafer Paşa Çeşmesi Namık Kemal Zindanı'nın Kuzey batı bölümünde yer almaktadır. Çeşmenin 1597 yılında inşa edilen kitabesinde, kurucusu Cafer Paşa'dan övgüyle bahsedilmektedir.\n\nFor more info / Daha fazlası için;\nhttps://www.visitncy.com/tr/kesfet/cafer-pasa-hamami/",
    "url": "https://www.visitncy.com/tr/kesfet/cafer-pasa-hamami/"
   }
  },
  {
   "type": "Feature",
   "id": 3239934214,
   "geometry": {
    "type": "Point",
    "coordinates": [
     33.94049,
     35.125486
    ]
   },
   "properties": {
    "marker-symbol": "trail",
    "image": {
     "id": "0lpiwo7tjygska2y",
     "w": 1500,
     "h": 1000,
     "tip_color": "#5e5847",
     "avg_color": "#667274",
     "caption": null
    },
    "title": "Twin Churches/İkiz Kiliseler",
    "description": "Direction\nhttps://goo.gl/maps/WbB3pQP3RtJRAAgdA\n\nAmong the many churches in Famagusta, these two medieval edifices have an exhilarating story to tell.\n\nThe 13th century officially named Templars Church of St. John and the Hospitallers Church of St. John were built alongside one another within the same century, and together are known as the Twin Churches.\n\nThe larger of the two belonging to the Templars dates to the earlier side of the century and the Hospitallers was completed towards the tail end, and together they were the centres of the two orders in Cyprus.\n\nAlso known as the Knights Templar, they formed one of the three great military orders of knighthood, founded around 1119 to protect the pilgrims who flocked to the Holy Land after the First Crusade – they quickly rose to legendary wealth and influence for the two centuries to come.\n\nAt the head of the order was the Master of the Temple at Jerusalem until 1291.\n\nWith the gradual loss of their possessions in the Holy Land and the fall of the Latin kingdom, the Templars relocated their headquarters to Cyprus which they had once previously acquired from King Richard I of England in 1192.\n\nThe Hospitallers were a Christian organisation founded in Jerusalem in 1080, founded by St. John the Almoner of Amathus, son of the Byzantine Governor of Cyprus Epiphanios, and provided care for the poor, sick or injured pilgrims to the Holy Land, and soon became the other strong armed Christian force in the region.\n\nAfter the first Crusade it became a military order, charged with the upkeep and defence of the Holy Land. They soon became the most powerful Christian groups in the area, enjoying similar privileges and prosperity to those of the Templars, and, like them, sought refuge in the Kingdom of Cyprus in 1291 after the fall of Acre, the crusaders’ last Levantine bastion.\n\nAfter their heyday, the two famous fighting orders of the Crusaders’ period met with very contrasting fates – following the failed papal attempt to merge them into one, the Hospitallers were able to establish a lasting rule in Rhodos, while the Templars, persecuted by Philip IV of France and Pope Clement V were dissolved and many of them burned at stake.\n\nThe Hospitallers became involved in Cypriot politics, and upon the dissolution of the Templars, they took over the Cypriot properties of the Templars. Nonetheless, they constructed their own church abutting the older church – hence the Twin Churches of Famagusta, a testimony to the two rivalling orders’ sojourn in Cyprus.\n\nA later addition saw a passage built connecting the churches. Above the doorway of the Templars, you can see a small rose window – above the opposing door, the coats of arms of the Knights Hospitallers are still visible. The belfry of this church is a much later addition, dating to the 16th century. Various Byzantine frescoes from the same period can be seen to this day on these walls.\n\nThese churches have been since restored and are an historic site for thousands of visitors each year.\n\nA hundred metres over from the Twin Churches is the Somineli Ev or Chimney House, a hybrid of exterior Venetian architecture meets interior Ottoman design. The building has been modified since is used for arts and crafts exhibitions.\n\n...\n\nBu kiliseler, Haçlıların en güçlü tarikatlarından  olan Templar ve Hospitalier şövalyeleri tarafından 13. yüzyılın sonu ve 14. yüzyılın başında inşa edilmiştir. Bu komşu kiliseler bir zamanlar Kıbrıs'taki tarikatların merkeziydi. Kuzey kısmındaki kilise diğerinden biraz daha büyüktür ve Templar Şövalyeleri tarafından ziyaret edilip, dua alanı olarak inşa edilmiştir. Hastaların ve yaşlıların koruyucusu olan Hospitalier Tarikatına  ait olan güney kısımda bulunan ve daha küçük olan kilisenin kendine has kemerli bir girişi vardır. Tarikatın kurucusu, Kıbrıs Bizans Valisi Epiphanios’un oğlu St. John'dur. Hospitalier şövalyelerine 1308'de diğer kilise verilmiş olsa da, bu yapıya dokunmamışlar ve güney kısmındakinin yanına kendi kiliselerini inşa etmiştirler. Kilisenin girişindeki alçak kabartmada Hospitalier şövalyelerinin amblemi yer almaktadır.\n\nFor more info / Daha fazlası  için;\nhttps://www.visitncy.com/tr/kesfet/ikiz-kiliseler/",
    "url": "https://www.visitncy.com/tr/kesfet/ikiz-kiliseler/"
   }
  },
  {
   "type": "Feature",
   "id": 3273073652,
   "geometry": {
    "type": "Point",
    "coordinates": [
     33.938698,
     35.125258
    ]
   },
   "properties": {
    "description": "Direction\nhttps://goo.gl/maps/3F1oCYh2jAnP3WFy5\n\nFamagusta Sir Francis Lahkas  annd his brothers  of the Nestorian order had this church built in Gothic style in 1360-1369. The inner walls were decorated with frescos fro 2  different eras. When  it was made initially the church was used by  Famagustan Orthodox and named Saint George Xorinos. According to the legends told about Saint George Xorinos, if one takes some soil from the church and leaves it at enemy homes, they will  either die or leave Cyprus within a year.\n\n...\n\nKilise, Nesturi tarikatı üyesi olan Gazimağusalı Sir Francis Lahkas ve kardeşleri tarafından 1360- 1369 yıllarında Gotik tarzda inşa edilmiştir. İç duvarlar iki farklı döneme ait fresklerle süslenmiştir. İlk yapıldığında Nesturi tarikatına ait olduğu bilinen kilise, 1905 yılından sonra Gazimağusa Ortodoksları tarafından kullanılmış ve St. George Xorinos adını almıştır. St.George Xorinos hakkında anlatılan efsanelere göre, kiliseden toprak alıp düşmana bırakan kişi ya ölür ya da bir yıl içinde Kıbrıs'ı terk edermiş.",
    "image": {
     "id": "0cmgcg3k3rmy1kaw",
     "w": 5184,
     "h": 3888,
     "tip_color": "#3b470d",
     "avg_color": "#837e6c",
     "caption": ""
    },
    "marker-symbol": "trail",
    "title": "Nestorian Church Saint George Xorionos Church/Nasturyan Kilisesi"
   }
  },
  {
   "type": "Feature",
   "id": 669692912,
   "geometry": {
    "type": "Point",
    "coordinates": [
     33.938789,
     35.125869
    ]
   },
   "properties": {
    "description": "Direction\nhttps://goo.gl/maps/kaGgouhRFF2utSNd6\n\nThis is an underground room carved into a rock, used for prayer in the Medieval times. In the west side of the room is a chapel carved of small stones and built properly later on. It is well known that in the time when the Orthodox order was banned, many underground antique graves and caves were used as places of workship. The vault of the church and the walls are decorated with 16th century fresco.\n\n...\n\nBu yapı, Orta Çağ döneminde ibadet için kullanılan kayaya oyulmuş bir yeraltı odasıdır. Odanın batı kısmında küçük taşlardan oyulmuş ve sonradan düzgün bir şekilde inşa edilmiş bir şapel vardır. Ortodoks tarikatının yasak olduğu dönemde yeraltında birçok antik mezar ve mağaranın ibadet yeri olarak kullanıldığı bilinmektedir. Kilisenin tonozu ve duvarları 16. yüzyıla ait fresklerle süslenmiştir.",
    "image": {
     "id": "fdisg87juevnzi4r",
     "w": 4672,
     "h": 3104,
     "tip_color": "#544527",
     "avg_color": "#6f6951",
     "caption": null
    },
    "marker-symbol": "trail",
    "title": "Underground  Church/Yeraltı Kilisesi"
   }
  },
  {
   "type": "Feature",
   "id": 559235776,
   "geometry": {
    "type": "Point",
    "coordinates": [
     33.937547,
     35.125428
    ]
   },
   "properties": {
    "marker-symbol": "trail",
    "image": {
     "id": "tcixijv7whxr8c1n",
     "w": 1200,
     "h": 800,
     "tip_color": "#c2ad5e",
     "avg_color": "#607286",
     "caption": null
    },
    "title": "St. Anna Church/Kilisesi",
    "description": "Direction\nhttps://goo.gl/maps/jeYcKZtaRXk3t5si6\n\nThe church of St. Anne was probably built in the early 14th Century and was part of a monastic complex.\n\nIt was erected in what was known as the Syrian quarter and was originally a Latin, Catholic church before it was passed onto the Maronites later in the century.\n\nLocated in the walled city of Famagusta, adjacent the Martinengo Bastion, St. Anne Church forms part of the so-called “Martinengo Cluster” – a mass of monuments within an area that are conserved to promote the economic growth and territorial development of those regions.\n\nIndeed St. Anne was restored by experts from both the Turkish and Greek Cypriot communities in 2018.\n\nIt consists of a single nave with two bays, with groin vaults separated by transverse ribs. The walls are supported by external buttresses, between which can be seen tall windows, a typically Gothic feature. It is believed the original facade supported a sturdy belfry.\n\n...\n\nKilise, Orta Çağ Gazimağusa'sında Suriyelilerin yaşadığı Nesturi mahallesinde yer almaktaydı. Bir dönem Maronit Kilisesi olarak da kullanıldığı söylenmektedir.14. yüzyıl  Güney Fransa Gotik sanatının en belirgin özelliklerini yansıtmaktadır.  İç yapının batı duvarlarında tarikatın kurucularının mezarları bulunmaktadır. Bir zamanlar duvarlarda, Latin işlemeleri olan İtalyan tarzı freskler bulunmaktaydı, ancak günümüzde bunların çok azı görülebilmektedir.\n\nFor more info / Daha fazlası için;\nhttps://www.visitncy.com/tr/kesfet/st-anne-kilisesi/",
    "url": "https://www.visitncy.com/tr/kesfet/st-anne-kilisesi/"
   }
  },
  {
   "type": "Feature",
   "id": 4225216317,
   "geometry": {
    "type": "Point",
    "coordinates": [
     33.936963,
     35.126719
    ]
   },
   "properties": {
    "description": "Direction\nhttps://goo.gl/maps/VrEMoPaCDqCUb7hG7\n\nThis is a reflection of the combination of French Gothic, Byzantine and Armenian styles. The western door that is a semi-circle is decorated with zigzag, badge,conduit and leaf motives. To create proper acoustics, jars were placed at the vaults of the room. There are signs of poor workmanship of Byzantine wall decorations in the inner walls. It was used as a small mosque in the Ottoman era and is dated back to the 15th century.\n\n...\n\nBu yapı, Fransız Gotik, Bizans ve Ermeni tarzlarının birleşiminin bir yansımasıdır. Yarım daire şeklindeki batı kapısı zikzak olarak rozet, kanal ve yaprak motifleriyle süslenmiştir. Uygun akustiği  oluşturabilmek için odanın tonozlarına küpler yerleştirilmişti. İç duvarlarda Bizans duvar süslemelerinin kötü işçiliğine dair izler bulunmaktadır. 15. yüzyıla kadar uzanan yapı, Osmanlı döneminde mescit olarak kullanılmıştır.",
    "image": {
     "id": "bpmm9epxsieunpyc",
     "w": 640,
     "h": 426,
     "tip_color": "#c8a277",
     "avg_color": "#9a8b73",
     "caption": null
    },
    "marker-symbol": "trail",
    "title": "Tanner's Mosque/Tabakhane Mescidi"
   }
  },
  {
   "type": "Feature",
   "id": 2045149503,
   "geometry": {
    "type": "Point",
    "coordinates": [
     33.936512,
     35.127083
    ]
   },
   "properties": {
    "marker-symbol": "trail",
    "image": {
     "id": "pap5gy3xopkdlrg9",
     "w": 1500,
     "h": 1000,
     "tip_color": "#74881b",
     "avg_color": "#9d9a66",
     "caption": null
    },
    "title": "Carmelites Church/Kilisesi",
    "description": "Direction\nhttps://goo.gl/maps/nmySK1nmRacpSCfF6\n\nAnother of Famagusta’s remarkable Gothic-era ruined churches is the Church of St. Mary of Carmel or the Carmelite Church, found in the north west corner of the city.\n\nLocated in the bastion precinct, the church of St. Mary was one of the city’s larger edifices.\n\nIn the 13th century, as Muslim armies gradually reclaimed the Holy Land, many middle eastern Christians fled to Famagusta. Although Christian, their specific beliefs differed from that of Latin or Orthodox Christians, and they tended to congregate in the same area.\n\nIn a letter dated 13 March 1311, Pope Clement V authorised the Carmelites to settle in Cyprus. Two other mendicant orders—the Franciscan and Dominican orders—had already been established in the city for fifteen years or so. The Augustinians, the last of the mendicant orders, arrived shortly after.\n\nThe Carmelites who originated from the Carmel mountains of Northern Israel found themselves in a district of Famagusta which later became known as the Syrian quarter of the city.\n\nThe church was built in the 14th Century as part of a monastic complex dedicated to the Virgin Mary, hence its name St. Mary of Carmel. Indeed, many other churches were built in the town at the same era, and chroniclers believe Famagusta to be one of the richest cities in Christendom.\n\nIt was close to a corner of the urban enclosure where the Venetians would later build the Martinengo Bastion in the sixteenth century. It adjoined the Armenian monastery, which was established at the same time, and was next to other monasteries belonging to eastern communities with whom the Carmelites traditionally maintained a religious dialogue.\n\nLocated in an area provided by King Henry II who reigned between 1285 – 1306 and 1310 – 1324, evidence of royal participation, the kingdom’s coat of arms and that of the Lusignan family can be found on the façade of the church. A keystone on the ground bears the same coat of arms of Cyprus.\n\nAnother keystone bears the coat of arms of the Babin family, a powerful family in the kingdom who had donated generously to the monastery, and the remains of this family’s’ epitaphs were also found during archaeological excavations.\n\nThe wall-niche tombs testify to the popularity of the mendicant orders amongst the faithful, who wanted to have their final resting places in their church.\n\nThe plan of the Church of St Mary of the Carmelites is characteristic of the beautiful simplicity of the mendicant orders – a single nave of three bays that terminates in a five-sided hexagonal apse. This plan is almost identical to that of the Franciscan St. Francis Church, which was built slightly earlier and today is aesthetically less severe.\n\nThe monument’s outline does in fact give it an extremely austere appearance – the walls, which are without interest and have no decorations, are supported by buttresses without projections. Only the façade, which opened onto the street and therefore faced the city and the faithful was richly decorated, featuring a large pointed window with tracery.\n\nIn its day, St. Mary was an important church – the tomb of Peter Thomas, a Carmelite friar recognised as a saint by the Roman Catholic Church, who was the Pope’s representative and the Patriarch of Constantinople, died in 1366 and was buried here.\n\nThe austerity of mendicant architecture also spread to other religious edifices – the neighbouring Church of St. Anne was built in a similar style to this Carmelite church.\n\n...\n\nKarmelitler ilk olarak 1226'da Kıbrıs'a geldiler. 14. yüzyılda Gazimağusa'da inşa edilen manastır ve kilise, Karmel Dağı Meryem Ana'sına adanmıştır. Tarihçiler, kilisenin İstanbul Patriği St. Peter Thomas ve 1. Peter'in (1359-1369) Avrupa'yı gezerken sağladıkları mali destekle inşa edildiğine inanmaktaydırlar. St. Peter Thomas, Lazkiye Başpiskoposu idi. İskenderiye kuşatmasında yaralanarak 1366'da vefat etmiş ve vasiyeti üzerine kilisenin koro bölümünün girişine gömülmüştür. Kilise Gotik tarzda olup, kilisenin iç duvarları, saf İtalyan tarzı fresklerle süslenmiştir.\n\nFor more info / Dah fazlası için;\nhttps://www.visitncy.com/tr/kesfet/st-mary-kilisesi/",
    "url": "https://www.visitncy.com/tr/kesfet/st-mary-kilisesi/"
   }
  },
  {
   "type": "Feature",
   "id": 155434555,
   "geometry": {
    "type": "Point",
    "coordinates": [
     33.936388,
     35.127313
    ]
   },
   "properties": {
    "marker-symbol": "trail",
    "image": {
     "id": "kpekgtypld0zrbwe",
     "w": 1200,
     "h": 800,
     "tip_color": "#a18e4c",
     "avg_color": "#7c7561",
     "caption": null
    },
    "title": "St. Mary Armenian Church/Kilisesi",
    "description": "Direction\nhttps://goo.gl/maps/Z417m8aLR5uGx4iN8\n\nGanchvor Sourp Asdvadzadzin is the Armenian Apostolic church located within the walled city of Famagusta.\n\nOn the north-west side of the walls, it is a fortress-like building built in 1346 by Armenian refugees from Cilicia.\n\nThe Armenians escaped the Mameluke attacks against Ayas of Cilicia and arrived to Cyprus from the southern coast of Turkey, before the French Lusignans arrived. Like other non-Latin or non-Orthodox Christians, they settled in the Syrian quarter of the city, especially populated with Carmelites.\n\nThe Armenian church was built in the 14th century by the refugees in a typical Armenian style with Cypriot masonry.\n\nIt is believed the Ganchvor was a part of an important monastic, cultural and theological establishment, at which Archbishop of Tarsus in the Armenian Kingdom of Cilicia, Saint Nerses of Lambron is said to have studied, and whose foundations survived until the mid-20th century.\n\nA scriptorium devoted to the writing, copying and illuminating of manuscripts also used to operate in this monastery, manuscripts of which survive at the Armenian Saint James’ Monastery in Jerusalem.\n\nAfter the Ottoman siege, this church became unused from 1571. Records show up until at least 1862, it featured a small bell-tower.\n\nIt was preserved in the early 1900’s and upon completion of repairs, the first Liturgy and its re-consecration were held on 14 January 1945 by Archimandrite Krikor Bahlavouni.\n\nIt is small with only one aisle and a cylindrical apse. The roof is in the shape of a cruciform, and the apse is covered with a semi-dome. There is some evidence that a second chapel was added to the north east, but this has not survived.\n\nOutside the church, close examination will reveal crosses inscribed by pilgrims as a declaration of faith are seen on the wall. Beyond the southern door, you can also see traces of a medieval sun dial.\n\nIt adjoins the Carmelite church, which was established at a similar period, as part of a monastic complex dedicated to the Virgin Mary.\n\n...\n\nErmeniler Kıbrıs'a ilk olarak Arap akınları sırasında gelmişlerdir. 1360 yılına kadar Suriye ve Filistin'de yaşayan Ermeniler, Kıbrıs'a gelmeye devam etmişler ve bu süreçte kendi kiliselerini inşa etmişlerdir. Yapı kendine özgün tarzı nedeniyle Kıbrıs'taki Ermeni varlığının anıtı olarak görülmektedir. Orta Çağ'da Ermenilerin Gazimağusa'da Başpiskoposlukları, St. Sergios, St. Barbara ve St. Mary Kiliseleri vardı. Günümüze kadar  sadece St.Mary Kilisesi gelebilmiştir. Bu kilise, Caller adlı manastırın şapeliydi. 1907 yılında yenilenmiş ve 1945 yılında Ermenilere kiralanmıştır. Kilisenin içindeki Azizlerin resmediği fresklerin altında Ermenice yazılar yer almaktadır.\n\nFor more info / Daha fazlası için;\nhttps://www.visitncy.com/tr/kesfet/ganchvor-manastiri/",
    "url": "https://www.visitncy.com/discover/ganchvor-monastery/"
   }
  },
  {
   "type": "Feature",
   "id": 1008471921,
   "geometry": {
    "type": "Point",
    "coordinates": [
     33.935466,
     35.12827
    ]
   },
   "properties": {
    "marker-symbol": "trail",
    "image": {
     "id": "ulov626v1ikj1unb",
     "w": 1200,
     "h": 797,
     "tip_color": "#a68f61",
     "avg_color": "#6c736a",
     "caption": null
    },
    "title": "Martinengo Bastion/Tabyası",
    "description": "Direction\nhttps://goo.gl/maps/NJ14AKTsFT5vtC897\n\nWithin the fortification of the Famagusta City Wall, this bastion is one of the finest displays of state-of-the-art renaissance military architecture.\n\nAlso known as Tophane, the Martinengo Bastion can be found in the north west corner of the walled city, and its intricacy is in stark contrast to that of its peaceful and secluded setting.\n\nEarly History\n\nThe Kingdom of Cyprus was a Crusader state that existed between 1192 and 1489 and was ruled by the French House of Lusignan. When the independent kingdom ended, the island of Cyprus became an overseas possession of the Republic of Venice from 1489, until it was conquered by the Ottoman Empire in 1570 – 1571.\n\nWhen the Venetians arrived in Cyprus, they very quickly realised that the walls of none of the cities were suitable for modern defence and they set about great modifications and renovations.\n\n...\n\nOrta Çağ döneminin askeri başyapıtlarından biridir. Bu tabyanın yapımcısı, 1550 yılında Venedik Cumhuriyeti tarafından Gazimağusa'ya gönderilen Giovanni Girolamo Sammicheli'dir. Tabya, Kıbrıs'taki Venedikli Komutan Hieronimo Martinengo'nun adını almıştır. Kalp şeklindeki tabyanın duvarları kesme taşlardan yapılmıştır. Duvarların kalınlığı 13-20 ayak arasındadir. Barut dumanının dışarı atılmasına yardımcı olmak için üst tonozlarda havalandırma delikleri bulunmaktadır. Top mazgallarının yan duvarlarında barut fıçıları ve diğer malzemeleri yerleştirmek için küçük depolama alanları vardır.\n\nFor more info / Daha fazlası için;\nhttps://www.visitncy.com/tr/kesfet/martinengo-tabyasi-tophane/",
    "url": "https://www.visitncy.com/tr/kesfet/martinengo-tabyasi-tophane/"
   }
  },
  {
   "type": "Feature",
   "id": 3070018015,
   "geometry": {
    "type": "Point",
    "coordinates": [
     33.939457,
     35.127359
    ]
   },
   "properties": {
    "description": "Direction\nhttps://goo.gl/maps/svtSq8kNkRXTnqwG6\n\nAlthough it is known as the Kertikli Bath by many, it is also known  as the ''Gedikli Bath'', ''Frenk Bath'' and ''Lusignan Bath''. The baths were made with rubble stone and the outer walls are covered with hewn stones. This is a unique style with different build specifications compared to the other  Ottoman baths in Cyprus. According to records during the Genoese reign in Famagusta, there is mention of St. Dominic  Monastery and the Dominican Monks'Baths, there fore this may be the same bath called the Kertikli or Gedikli in the Ottoman era. The baths were renovated in 1950-1956.\n\n...\n\nYapı birçok kişi tarafından Keltikli Hamamı olarak bilinse de,\"Gedikli Hamamı\", \"Frenk Hamamı\" ve \"Lüzinyan Hamamı\" olarak da bilinmektedir. Hamam, moloz taşlardan yapılmış olup, dış duvarları ise kesme taşlarla kaplanmıştır. Bu yapı, Kıbrıs'taki diğer Osmanlı hamamlarından farklı inşa özelliklerine sahip, benzersiz bir tarza sahiptir. Kayıtlara göre, Cenevizliler dönemine ait  Aziz Dominik Manastırı ve Dominik Keşiş Hamamları, bu hamamla aynı yapıya sahip olabilirler. Hamam 1950 - 1956 yıllarında yenilenmiştir.",
    "image": {
     "id": "6yy17syhb2v3cuyv",
     "w": 1024,
     "h": 607,
     "tip_color": "#75623e",
     "avg_color": "#6d6351",
     "caption": null
    },
    "marker-symbol": "trail",
    "title": "Keltikli Bath/Hamamı"
   }
  },
  {
   "type": "Feature",
   "id": 518527922,
   "geometry": {
    "type": "Point",
    "coordinates": [
     33.940049,
     35.128263
    ]
   },
   "properties": {
    "description": "Direction\nhttps://goo.gl/maps/iBTrQotzvRoh9i1e7\n\nThis consists of the ruins of a Medieval Franciscan Sisters monastery. Looking at the ruins it is obvious that it was made in the 14th century style. At first it was used by Latins named Santa Chiara as a house of workship, and in the 20th century te Orthodox took it over and called it Ayia Phodou. Ayia Phodou was known to protect Cyprus against epidemics. Under the  nort-western ruins of this church there is another church known by the same name which  is underground.\n\n...\n\nYapı, Orta Çağ Fransisken Kardeşler Manastırı’nın kalıntılarından oluşmaktadır. Kalıntılara bakıldığında 14. yüzyıl tarzında yapıldığı anlaşılmaktadır. İlk olarak Santa Chiara olarak adlandırılıp, Latinler tarafından ibadethane olarak kullanılmış, daha sonra ise 20. yüzyılda Ortodokslar tarafından devralınmış ve Ayia Phodou olarak isimlendirilmiştir. Ayia Phodou'nun Kıbrıs'ı salgın hastalıklara karşı koruduğu biliniyordu. Kilisenin kuzeybatıdaki yıkıntılarının altında, aynı adla bilinen başka bir yeraltı kilisesi daha vardır.",
    "image": {
     "id": "odqcm8bm6zxb3sr3",
     "w": 680,
     "h": 510,
     "tip_color": "#4b5b52",
     "avg_color": "#888788",
     "caption": null
    },
    "marker-symbol": "trail",
    "title": "St. Claire / Ayia Phodou Church and Underground Temple/ Kilisesi ve Yeraltı Tapınağı"
   }
  },
  {
   "type": "Feature",
   "id": 4009916499,
   "geometry": {
    "type": "Point",
    "coordinates": [
     33.942957,
     35.126823
    ]
   },
   "properties": {
    "marker-symbol": "trail",
    "image": {
     "id": "olrqtrhk8ho2l0mi",
     "w": 1500,
     "h": 1000,
     "tip_color": "#629a1f",
     "avg_color": "#738b92",
     "caption": null
    },
    "title": "St. George of Latins Church/St. George Latin Kilisesi",
    "description": "Direction\nhttps://goo.gl/maps/2umykRk5dZa2ZwVv5\n\nSitting perhaps incongruously amid a traffic intersection, St. George of the Latins is one of Famagusta’s oldest churches.\n\nLocated in the northern part of the old city, close to Othello’s Tower, the remaining walls with their distinctive lancet windows are a great example of early Gothic architecture.\n\nThough the precise date of its construction is unknown, evidence of a fortified parapet where defenders could protect the church, indicates that St. George was built at a time when the Lusignans had not yet completed the city walls – most likely in the last quarter of the 13th century, using materials removed from Salamis.\n\nIts design is said to be inspired by the Sainte-Chapelle in Paris, considered among the highest achievements of the Rayonnant period of Gothic architecture, and consecrated in 1248.\n\nDespite what remains today is predominantly the northern and eastern walls of this church, the remnants indicate what the edifice may have looked like in its prime.\n\nThin columns built into the walls were usually elaborately carved with religious figures or with coats of arms belonging to the benefactors of the church.\n\nAreas of the walls between the pillars were structured to be relatively free of weight, one of the main features of Gothic architecture, granting huge windows and substantial sunlight to enter the church.\n\nIn the south west corner, the first steps of what was a spiral staircase leading up to the roof can be seen, and to the north west, remnants of a guard house with a conical roof, the entrance doorway still unmistakable.\n\nFollowing the line of the roof and you can still see some of the protective wall, complete with arrow slots, another reason that has lead researchers to be believe that the church was built in the period before the city walls were completed.\n\nAs was the case with most of the towering buildings, the city walls did not provide complete protection and the church suffered damage during the Ottoman siege of 1570 – 1571, some of which can still be observed on the eastern wall of the church.\n\nThe only entrance which survives is to the north, and this is comparatively well preserved. It is surrounded by carvings – a gargoyle in the form of a monk opening his mouth with his hand, most likely used to drain water from the walls, and also of a lion devouring a lamb.\n\nNot to be confused with the similarly named St. George of the Greeks church which is a few minutes’ walk to the east of this spot, your route will almost certainly take you past this intriguing site.\n\n...\n\nKilise, Yakın Çağ Gotik tarzının en güzel ve mükemmel örneklerinden biri olup 13. yüzyılın sonu, 14. yüzyılın başlarına tarihlenmektedir. Ünlü Fransız sanat tarihçisi Camille Enlart, bu büyüleyici kilisenin, ada genelinde, geçmişte ve gelecekte örneği olmayacak mükemmellikte bir eser olduğunu belirtmiştir.  Ayrı bir siper duvarı ile çevrili olduğu için kentten önce inşa edilmiş olabileceği de iddia edilmektedir.\n\nFor more info / Daha fazlası için;\nhttps://www.visitncy.com/tr/kesfet/st-george-latin-kilisesi/",
    "url": "https://www.visitncy.com/tr/kesfet/st-george-latin-kilisesi/"
   }
  },
  {
   "type": "Feature",
   "id": 1086507139,
   "geometry": {
    "type": "Point",
    "coordinates": [
     33.94325,
     35.127667
    ]
   },
   "properties": {
    "marker-symbol": "trail",
    "image": {
     "id": "g0nqj986aoruskox",
     "w": 1200,
     "h": 800,
     "tip_color": "#9b8a53",
     "avg_color": "#81837a",
     "caption": null
    },
    "title": "Othello Castle/Kalesi",
    "description": "Direction\nhttps://goo.gl/maps/uHBAmVNH3L2CFUAv6\n\nAlso known as Othello’s Tower, this famous construction was originally built as a moated citadel in order to protect Famagusta’s harbour, and was the original main entrance to the town.\n\nInitially named the Harbour Citadel, it was built in the 14th century by the Lusignans who ruled the Kingdom of Cyprus, and members of the royal family and their servants are believed to have lived there. The tower was constructed around a central oblong courtyard with a square tower on each corner. A great hall, kitchens, storerooms and servants’ quarters were located on the ground floor, reception rooms and bedrooms on the floor above.\n\nPrior to its construction, there had been a tower and fortifications on the site built by Prince of Tyre in the late 11th century.\n\n...\n\nGazimağusa kentinin kuzeydoğu köşesinde bir iç kaledir.  Mevcut yapının olduğu yerde  1310 yılında inşa edilmiş eski bir kule ve sur vardı. Mevcut  kale, 1492'de Venedikli Yüzbaşı Nicolao Foscarino tarafından saf İtalyan Rönesans tarzıyla yeniden inşa edilmiş olup, kalenin girişinde Venedik Aslan kabartması bulunmaktadır. Kalenin, 1505-1508 yılları arasında Kıbrıs Valisi Teğmen Christoforo Moro'nun evi olduğu bilinmekte olup , Shakespeare'in ünlü trajedyasında  Desdemona'yı  öldüren Othello'ya ilham kaynağı olduğuna inanılmaktadır. Sömürge döneminde kale, Shakespeare'in Othello'su diye isimlendirilmişti. Günümüzde kalenin avlusu çeşitli etkinliklere ev sahipliği yapmaktadır.\n\nFor more info / Daha fazlası için;\nhttps://www.visitncy.com/tr/kesfet/othello-kalesi/",
    "url": "https://www.visitncy.com/tr/kesfet/othello-kalesi/"
   }
  },
  {
   "type": "Feature",
   "id": 909842874,
   "geometry": {
    "type": "Point",
    "coordinates": [
     33.944673,
     35.126045
    ]
   },
   "properties": {
    "marker-symbol": "trail",
    "image": {
     "id": "hnkk8rkozrohlgap",
     "w": 1200,
     "h": 800,
     "tip_color": "#f5eddd",
     "avg_color": "#867459",
     "caption": null
    },
    "title": "Porta del Mare & St. Anthony Church/Deniz Kapısı ve St. Anthony Klisesi",
    "description": "Direction\nhttps://goo.gl/maps/LJECkkN8P6EXV64L8\n\nOne of two original entrances to the old walled city of Famagusta, this gate is remarkably well-preserved.\n\nWhen the Venetians took control of Famagusta in 1489, they immediately started to strengthen the city walls in line with modern warfare and against posing enemy threats.\n\nFortifications continued for over 70 years, and the Sea Gate, or Porta del Mare, was one of the earliest to be completed, in 1496.\n\nBuilt in Italian Renaissance style and sanctioned by Venetian Commander Niccolo Prioli, it served to protect the entrance to the walled city from the Port of Famagusta. It was built at an angle in order that rogue sea farers would embark upon its superiority from afar as they approached the city from the Mediterranean. An inscription above the gate records the legacy of the chief.\n\nDominating the entrance is a large marble sculpture of the winged lion of St. Mark, the patron saint of Venice. The lion is seen to hold a book in one of its paws with the Latin inscription, “Peace to you Mark, the Evangelist”. The marble is believed to have been sourced from the ancient ruins of Salamis.\n\nThe iron portcullis that opens towards the sea face of the walls is from the Venetian era, whereas the iron-clad wooden door that opens land side was erected later by the Ottomans.\n\nOn the land side, to the right of the Porta del Mare, visitors will also come upon a further statue of a lion, again brought over from Salamis by the Venetians.\n\nLegend has it that this lion will open its mouth on one occasion only – anyone who embarks on this rare moment and dares to put their hand inside, is believed will be the beneficiary of a very generous fortune. Perhaps that of the treasures rumoured to be hidden and sealed by Venetian merchants below the Othello Citadel during the Ottoman Siege. Nobody to date has witnessed the lion opening its mouth, nor had their hand bitten off!\n\nA view of the port side of the gate can also be better seen from the Othello Tower, the oldest section of the walls that you will also most likely visit when discovering the historic Famagusta Walls.\n\n...\n\nGazimağusa'nın orijinal iki ana giriş kapısından biridir. İtalyan Rönesans tarzında inşa edilmiştir. Girişin limana bakan kemerinin üst tarafında kanatlı bir Venedik Aslanı kabartması, alt kısmında ise bunun Venedikli Komutan Nicola Prioli tarafından, 1496 yılında yaptırıldığı bilinen yazıt yer almaktadır. Deniz Kapısı'nın güneybatı tarafında St.Anthony Bizans Kilisesi'nin kalıntıları yer almaktadır. 1300 yılı itibariyle kilisenin güney tarafında bir hastane bulunuyordu. Bu yapı, Fransız ve Bizans mimarisinin karışımı olup, 1360-1390 yılları arasında ayakta kalmıştır.\n\nFor more info / Daha fazlası için;\nhttps://www.visitncy.com/tr/kesfet/deniz-kapisi/",
    "url": "https://www.visitncy.com/discover/porta-del-mare/"
   }
  },
  {
   "type": "Feature",
   "id": 4157965694,
   "geometry": {
    "type": "Point",
    "coordinates": [
     33.943602,
     35.123952
    ]
   },
   "properties": {
    "marker-symbol": "trail",
    "image": {
     "id": "ezianizxyvcl6bnz",
     "w": 1500,
     "h": 1000,
     "tip_color": "#524725",
     "avg_color": "#667887",
     "caption": null
    },
    "title": "St. George of the Greeks Church/St. George Rum Kilisesi",
    "description": "Direction\nhttps://goo.gl/maps/Ju6eCm1ovcmiRVuK9\n\nThis Nestorian Church officially known as the Church of St. George the Exiler, lies within the walls of the old town of Famagusta.\n\nSt. George of the Greeks, not to be confused with the similarly named St. George of the Latins, is the second largest church in Famagusta, and during the middle ages it served as the Cathedral for the Greek Orthodox community. It was built in the 12th century, to the west of a much earlier church dedicated to St. George and around a similar time the grand building of the Latin St. Nicholas Cathedral was initiated.\n\nThe build is thought to be financed by East Syrian Nestorian merchants, the Lakhas brothers, who were known for their immense wealth. The architecture and decorations of the building were reminiscent of the Southern French and Italian Gothic churches of the time and may have been influenced by King Peter I’s visit to Avignon in 1363. This version of the church’s history represents the virtual consensus of scholars of medieval Famagusta – however its architecture is also reminiscent of the 12th–13th century Crusader architecture in Palestine and Syria.\n\n...\n\nM.S. XIV. yüzyılda Gotik tarzda inşa edilmiş, çok büyük bir kilisedir. Gazimağusa'nın Rum Ortodoks mahallesinden zengin bir Rum tüccar tarafından yaptırıldığı söylenmekte olup, günümüzde yıpranmış durumdaki duvar freskleri ziyaretçilerin oldukça ilgisini çekmektedir. Bizans dönemi özellikleri taşıyan St. Symeon Katedral Kilisesi, bu Kilise'nin güneydoğu ucunda yer almaktadır. Bir rivayete görede Salamis Başpiskoposu St. Epiphanios'un (M.S. 310-206) bu kilisede zenginlikleri ile birlikte gömülü olduğu, kalıntılarının ise  M.S. 900 yılında İmparator Leo tarafından İstanbul'a taşındığı söylenmektedir.\n\nFor more info / Daha fazlası için;\nhttps://www.visitncy.com/tr/kesfet/st-george-yunan-kilisesi/",
    "url": "https://www.visitncy.com/tr/kesfet/st-george-yunan-kilisesi/"
   }
  },
  {
   "type": "Feature",
   "id": 1970825479,
   "geometry": {
    "type": "Point",
    "coordinates": [
     33.944418,
     35.122983
    ]
   },
   "properties": {
    "description": "Direction\nhttps://goo.gl/maps/RbBa6PixHUdBZioh6\n\nIt's a small Orthodox  Church built in the Byzantine style in the 15th centuryy. It is one of the fou churches believed to be iğnthe medieval Famagusta Orthodox quarter. The plan and architecture reflects the specifics of the era's village-style characteristics. Today remain only traces of the fresco that was once the main attraction on the inside walls. \n\n...\n\n15. yüzyılda Bizans tarzında inşa edilmiş küçük bir Ortodoks kilisesidir. OrtaÇağ döneminde Gazimağusa’da Ortodokslara ait dört kiliseden biri olduğuna inanılmaktadır. Plan ve mimari yapısı, dönemin köy tipi özelliklerini yansıtır. Bir zamanlar iç duvarlarında bulunan ve ana cazibe merkezi olan freskten günümüzde geriye sadece izler kalmıştır.",
    "image": {
     "id": "tg1rqv08y8eolhgg",
     "w": 1200,
     "h": 675,
     "tip_color": "#8ab844",
     "avg_color": "#7e8b80",
     "caption": null
    },
    "marker-symbol": "trail",
    "title": "Ay. Nicholas Church/Kilisesi"
   }
  },
  {
   "type": "Feature",
   "id": 2747624082,
   "geometry": {
    "type": "Point",
    "coordinates": [
     33.944108,
     35.122711
    ]
   },
   "properties": {
    "marker-symbol": "trail",
    "image": {
     "id": "zcyckfovzqsmlkns",
     "w": 1500,
     "h": 1000,
     "tip_color": "#498f27",
     "avg_color": "#768a80",
     "caption": null
    },
    "title": "Ayia Zoni Church/Kilisesi",
    "description": "Direction\nhttps://goo.gl/maps/Yg4tnw8rrZTzDBLBA\n\nAyia Zone is typical of Orthodox churches built in the later medieval period, incorporating elements of regional Gothic architecture into their otherwise Byzantine forms.\n\nIn the south east corner of Famagusta, close to the St. Nikolas church, it is one of three remaining Byzantine churches in the area, the other being St. Simone.\n\nA simple church with a cross shaped plan, the church may well stand on earlier foundations, though archaeological evidence confirming this has yet to be uncovered.\n\nIt is likely this church was abandoned or used for other purposes during the Ottoman reign, as it has maintained itself very well throughout hundreds of years.\n\nUsually the church doors are closed for visitors, however if you are lucky enough to gain access, there are some fragmentary frescoes of the Archangel Michael that can be seen inside. You can nevertheless just glimpse them if you peer in through the cracks in the door.\n\n...\n\nYanındaki St. Nicholas kilisesi gibi bu kilise de 15. yüzyılda Bizans tarzında inşa edilmiştir. Dönemin köylerindeki diğer birçok Ortodoks kilisesi gibi bu kilise de 6X4 metre boyutlarında ve oldukça sade inşa edilmiştir. Kilise tamamlandıktan sonra Meryem Ana’ya adanmıştır. Günümüzde halen sağlam olan kubbe ve iç duvarlar bir zamanlar fresklerle kaplıydı.\n\nFor more info / Daha fazlası için;\nhttps://www.visitncy.com/tr/kesfet/ayia-zone-kilisesi/",
    "url": "https://www.visitncy.com/tr/kesfet/ayia-zone-kilisesi/"
   }
  },
  {
   "type": "Feature",
   "id": 1480259603,
   "geometry": {
    "type": "Point",
    "coordinates": [
     33.946992,
     35.123257
    ]
   },
   "properties": {
    "marker-symbol": "trail",
    "image": {
     "id": "3g1hpropxmtmexja",
     "w": 4288,
     "h": 2848,
     "tip_color": "#bfa03d",
     "avg_color": "#775f27",
     "caption": null
    },
    "title": "Canbulat Tomb and Museum/Türbesi ve Müzesi - Arsenal Bastion/Tabyası",
    "description": "Direction\nhttps://goo.gl/maps/BSu9b62863zBbN4k8\n\nThis historic stronghold within the Famagusta Walls has since be renamed and houses a tomb and museum open to the public.\n\nWhen the Ottoman decision was taken to conquer Cyprus, Canbulat Bey of Kilis, a provincial governor of the Empire, joined the invading forces.\n\nAs he was extremely successful during the capture of Nicosia, he was promoted to become the commander of the right wing of the Ottoman army to the south of the walled city of Famagusta, along with Iskender Pasha and Deniz Pasha.\n\nIt was from here that the Ottomans bombarded the town, and why most damage to the taller buildings within the old city walls is on the southeast side.\n\nThe Ottomans resumed large scale assaults on the walls of Famagusta and initially, they tried to dig under the overwhelming walls, however the Venetians blasted the tunnels, causing their collapse. The defending Venetians placed sharp blades on a turning wheel at the entrance of the bastion to ensure that any attack there would cut the enemy into pieces.\n\nAs the Venetians with their fortified walls and well-equipped bastions stubbornly guarded the city, the siege lasted for months on end.\n\nPopular folklore recounts, in order to obstruct the bladed turning wheel and allow the Ottomans passage through the city entrance, Canbulat decided to ride his horse into this perplexing obstacle. In doing so, Canbulat’s head was cut off – undeterred however, he picked his head up, mounted his horse, and continued to fight for several days with his skull under his arm. This motivated the Ottoman soldiers to continue the onslaught and eventually led the Venetians to surrender.\n\nWhat the Venetians called the Arsenal Bastion was renamed the Canbulat Bastion in honour of the Ottoman hero who died valiantly while attacking the walls on horseback during the bloody siege in 1572.\n\nThe martyr’s entombed remains are located at the Bastion which is also a place of pilgrimage for modern-day Turks visiting North Cyprus. Legend maintains that a fig tree grew up over the tomb, the fruits of which were believed to promote fertility in the women who visited.\n\nThe bastion also houses the ethnographic and archaeologicalCanbulat Museum, with Ottoman displays of artillery, uniforms, antique pieces, and Venetian pottery.\n\nAfter the destruction of the Arsenal Bastion, the besieged city rapidly began work and rebuilt the parapets. The traces of the repairs carried out by the Ottomans after the conquest of the Arsenal and Ravelin Bastions as well as the south walls between the two can easily be seen by visitors.\n\nThe Famagusta Lighthouse also stands tall on this historic location.\n\n...\n\nKilisli Bayrak Subayı Canbulat'ın Gazimağusa kuşatması sırasında Osmanlı ordusuyla omuz omuza savaştığı ve Arsenal tabyasında şehit düştüğü söylenmektedir. Naaşı kuşatmanın ardından Kilis’e götürülen Canbulat adına, kendisine duyulan saygının bir göstergesi olarak bir türbe inşa edilmiş, zamanla bu türbe duaların yanı sıra, dilek dilenen bir yer haline gelmiştir. Türbenin bulunduğu yapı müze haline getirilmiş olup, müzede, binada bulunan eserlerin yanısıra, Gazimağusa'daki Osmanlı Kuşatması'nın bir replikası ve bazı etnografik eşyalar sergilenmektedir.\n\nFor more info / Daha fazlası için;\nhttps://www.visitncy.com/tr/kesfet/arsenal-tabyasi/",
    "url": "https://www.visitncy.com/tr/kesfet/arsenal-tabyasi/"
   }
  },
  {
   "type": "Feature",
   "id": 2830438330,
   "geometry": {
    "type": "Point",
    "coordinates": [
     33.939528,
     35.120511
    ]
   },
   "properties": {
    "marker-symbol": "trail",
    "title": "The Historical Ottoman Graveyard/Tarihi Osmanlı Mezarlığı"
   }
  },
  {
   "type": "Feature",
   "id": 880033748,
   "geometry": {
    "type": "Point",
    "coordinates": [
     33.942095,
     35.117904
    ]
   },
   "properties": {
    "description": "Direction\nhttps://goo.gl/maps/38zRKfZgm12s3Yn37\n\nKutup Osman  Lodge, which is located in the Camlık area just outside the Famagusta city walls, is named after the founder of the Celveti order in Cyprus. Sheik Kutup Osman Fazli Efendi is buried in the shrine of the lodge. The Sheik has written 21 books on different topics. Sheik Kutup Osman was in-palace sermon during the reign of Mehmet IV. However due to in-palace conflicts and problems, he was exiled to Famagusta in 1690 by  Suleyman II. On the 13th month  of his exile, Kutup Osman passed away on 10 September 1691 and was buried in Famagusta.The shrine was built many years uupon his death.\nKutup Osman  Lodge, which is located in the Camik area just outside the Famagusta city walls, is named after the founder of the Celveti order in Cyprus. Sheik Kutup Osman Fazli Efendi is buried in the shrine of the lodge. The Sheik has written 21 books on different topics. Sheik Kutup Osman was in-palace sermon during the reign of Mehmet IV. However due to in-palace conflicts and problems, he was exiled to Famagusta in 1690 by  Suleyman II. On the 13th month  of his exile, Kutup Osman passed away on 10 September 1691 and was buried in Famagusta.The shrine was built many years uupon his death.\n\n...\n\nGazimağusa surlarının hemen dışındaki Çamlık Mevkii’nde yer alan Kutup Osman Tekkesi adını Kıbrıs'ta Celveti tarikatının kurucusundan almıştır. Şeyh Kutup Osman Fazlı Efendi, tekkenin içindeki türbesinde gömülüdür. Şeyh farklı konularda 21 kitap yazmıştır.  IV. Mehmet döneminde sarayda hutbe okuyan Şeyh Kutup Osman, saray içi anlaşmazlıklar ve sorunlar nedeniyle 1690 yılında II. Süleyman tarafından Gazimağusa'ya sürgüne gönderilmiş ve sürgününün 13. ayında 10 Eylül 1691'de vefat etmiştir. Türbe, ölümünden uzun yıllar sonra inşa edilmiştir.",
    "image": {
     "id": "kfgwzzalqfhyif1j",
     "w": 400,
     "h": 225,
     "tip_color": "#3d7cc4",
     "avg_color": "#5e99b7",
     "caption": null
    },
    "marker-symbol": "trail",
    "title": "Kutup Osman Enshrine and Lodge / Türbesi ve Tekkesi"
   }
  }
 ],
 "groups": [],
 "markers": [],
 "properties": {}
}